[{"OBJECT_NAME":"PRAETORIAN SDA_610","OBJECT_ID":"2025-203J","EPOCH":"2026-03-09T13:44:25.913760","MEAN_MOTION":13.840113,"ECCENTRICITY":0.0007844,"INCLINATION":81.2976,"RA_OF_ASC_NODE":103.001,"ARG_OF_PERICENTER":103.3116,"MEAN_ANOMALY":256.8916,"EPHEMERIS_TYPE":0,"CLASSIFICATION_TYPE":"U","NORAD_CAT_ID":65573,"ELEMENT_SET_NO":999,"REV_AT_EPOCH":2491,"BSTAR":5.8921e-5,"MEAN_MOTION_DOT":7.7e-7,"MEAN_MOTION_DDOT":0},{"OBJECT_NAME":"COSMOS 1275 DEB","OBJECT_ID":"1981-053ES","EPOCH":"2026-03-09T16:36:03.262752","MEAN_MOTION":13.79719948,"ECCENTRICITY":0.01137504,"INCLINATION":82.69,"RA_OF_ASC_NODE":298.6394,"ARG_OF_PERICENTER":74.4093,"MEAN_ANOMALY":348.4225,"EPHEMERIS_TYPE":0,"CLASSIFICATION_TYPE":"U","NORAD_CAT_ID":13020,"ELEMENT_SET_NO":999,"REV_AT_EPOCH":21666,"BSTAR":0.00064987651,"MEAN_MOTION_DOT":7.2e-6,"MEAN_MOTION_DDOT":0}]
